SKYKRAFT-1A             
1 55054U 23001AX  26068.71064616  .00008177  00000+0  30069-3 0  9991
2 55054  97.3349 127.6290 0011277 121.5092 238.7251 15.28083228176529
STARLINK-31736          
1 59547U 24074P   26068.09466869 -.00003520  00000+0 -11846-3 0  9991
2 59547  43.0078 339.9225 0001472 268.2918  91.7765 15.27578592106000
